{
  "type": "FeatureCollection",
  "features": [
    {
      "type": "Feature",
      "properties": {
        "norad_id": 24876,
        "name": "GPS BIIR-2  (PRN 13)",
        "group": "gps-ops",
        "lat": -46.24016912092618,
        "lon": 60.493642910669806,
        "alt_km": 20304.53946073143,
        "timestamp": "2025-12-23T14:49:09.648895+00:00",
        "meta_object_name": "GPS BIIR-2  (PRN 13)",
        "meta_object_id": "1997-035A",
        "meta_epoch": "2025-12-22T04:56:13.490880",
        "meta_mean_motion": 2.00563727,
        "meta_eccentricity": 0.00968316,
        "meta_inclination": 55.8997,
        "meta_ra_of_asc_node": 105.4987,
        "meta_arg_of_pericenter": 56.961,
        "meta_mean_anomaly": 303.9513,
        "meta_ephemeris_type": 0,
        "meta_classification_type": "U",
        "meta_norad_cat_id": 24876,
        "meta_element_set_no": 999,
        "meta_rev_at_epoch": 20840,
        "meta_bstar": 0,
        "meta_mean_motion_dot": 1.2e-07,
        "meta_mean_motion_ddot": 0,
        "tle_line1": "1 24876U 97035A   25356.20571170  .00000012  00000+0  00000+0 0  9996",
        "tle_line2": "2 24876  55.8997 105.4987 0096831  56.9610 303.9513  2.00563727208400"
      },
      "geometry": {
        "type": "Point",
        "coordinates": [
          60.493642910669806,
          -46.24016912092618
        ]
      }
    },
    {
      "type": "Feature",
      "properties": {
        "norad_id": 26360,
        "name": "GPS BIIR-4  (PRN 20)",
        "group": "gps-ops",
        "lat": 26.14170309050077,
        "lon": 46.47997015020099,
        "alt_km": 20267.851467308043,
        "timestamp": "2025-12-23T14:49:09.648937+00:00",
        "meta_object_name": "GPS BIIR-4  (PRN 20)",
        "meta_object_id": "2000-025A",
        "meta_epoch": "2025-12-23T02:03:28.748160",
        "meta_mean_motion": 2.00566833,
        "meta_eccentricity": 0.00388929,
        "meta_inclination": 55.0513,
        "meta_ra_of_asc_node": 26.4195,
        "meta_arg_of_pericenter": 242.9692,
        "meta_mean_anomaly": 125.4419,
        "meta_ephemeris_type": 0,
        "meta_classification_type": "U",
        "meta_norad_cat_id": 26360,
        "meta_element_set_no": 999,
        "meta_rev_at_epoch": 18774,
        "meta_bstar": 0,
        "meta_mean_motion_dot": -5.8e-07,
        "meta_mean_motion_ddot": 0,
        "tle_line1": "1 26360U 00025A   25357.08574940 -.00000058  00000+0  00000+0 0  9995",
        "tle_line2": "2 26360  55.0513  26.4195 0038892 242.9692 125.4419  2.00566833187745"
      },
      "geometry": {
        "type": "Point",
        "coordinates": [
          46.47997015020099,
          26.14170309050077
        ]
      }
    },
    {
      "type": "Feature",
      "properties": {
        "norad_id": 26407,
        "name": "GPS BIIR-5  (PRN 22)",
        "group": "gps-ops",
        "lat": -39.21896454145381,
        "lon": 77.18679236818421,
        "alt_km": 20076.65069224209,
        "timestamp": "2025-12-23T14:49:09.648958+00:00",
        "meta_object_name": "GPS BIIR-5  (PRN 22)",
        "meta_object_id": "2000-040A",
        "meta_epoch": "2025-12-23T00:54:29.755296",
        "meta_mean_motion": 2.00568094,
        "meta_eccentricity": 0.01254433,
        "meta_inclination": 54.8886,
        "meta_ra_of_asc_node": 222.1595,
        "meta_arg_of_pericenter": 301.9789,
        "meta_mean_anomaly": 231.519,
        "meta_ephemeris_type": 0,
        "meta_classification_type": "U",
        "meta_norad_cat_id": 26407,
        "meta_element_set_no": 999,
        "meta_rev_at_epoch": 18641,
        "meta_bstar": 0,
        "meta_mean_motion_dot": 6.6e-07,
        "meta_mean_motion_ddot": 0,
        "tle_line1": "1 26407U 00040A   25357.03784439  .00000066  00000+0  00000+0 0  9993",
        "tle_line2": "2 26407  54.8886 222.1595 0125443 301.9789 231.5190  2.00568094186417"
      },
      "geometry": {
        "type": "Point",
        "coordinates": [
          77.18679236818421,
          -39.21896454145381
        ]
      }
    },
    {
      "type": "Feature",
      "properties": {
        "norad_id": 27663,
        "name": "GPS BIIR-8  (PRN 16)",
        "group": "gps-ops",
        "lat": 5.503426572703747,
        "lon": -134.15915351954916,
        "alt_km": 19901.314358842355,
        "timestamp": "2025-12-23T14:49:09.648974+00:00",
        "meta_object_name": "GPS BIIR-8  (PRN 16)",
        "meta_object_id": "2003-005A",
        "meta_epoch": "2025-12-22T15:01:01.940160",
        "meta_mean_motion": 2.00570357,
        "meta_eccentricity": 0.0147807,
        "meta_inclination": 54.9212,
        "meta_ra_of_asc_node": 221.985,
        "meta_arg_of_pericenter": 51.9453,
        "meta_mean_anomaly": 319.9429,
        "meta_ephemeris_type": 0,
        "meta_classification_type": "U",
        "meta_norad_cat_id": 27663,
        "meta_element_set_no": 999,
        "meta_rev_at_epoch": 16777,
        "meta_bstar": 0,
        "meta_mean_motion_dot": 6.7e-07,
        "meta_mean_motion_ddot": 0,
        "tle_line1": "1 27663U 03005A   25356.62571690  .00000067  00000+0  00000+0 0  9990",
        "tle_line2": "2 27663  54.9212 221.9850 0147807  51.9453 319.9429  2.00570357167774"
      },
      "geometry": {
        "type": "Point",
        "coordinates": [
          -134.15915351954916,
          5.503426572703747
        ]
      }
    },
    {
      "type": "Feature",
      "properties": {
        "norad_id": 28190,
        "name": "GPS BIIR-11 (PRN 19)",
        "group": "gps-ops",
        "lat": 11.174913442136528,
        "lon": 94.81977160934089,
        "alt_km": 19892.758993407115,
        "timestamp": "2025-12-23T14:49:09.648989+00:00",
        "meta_object_name": "GPS BIIR-11 (PRN 19)",
        "meta_object_id": "2004-009A",
        "meta_epoch": "2025-12-22T01:59:41.237952",
        "meta_mean_motion": 2.00560473,
        "meta_eccentricity": 0.01084919,
        "meta_inclination": 54.9772,
        "meta_ra_of_asc_node": 282.8425,
        "meta_arg_of_pericenter": 167.7907,
        "meta_mean_anomaly": 330.6754,
        "meta_ephemeris_type": 0,
        "meta_classification_type": "U",
        "meta_norad_cat_id": 28190,
        "meta_element_set_no": 999,
        "meta_rev_at_epoch": 15939,
        "meta_bstar": 0,
        "meta_mean_motion_dot": -2.4e-07,
        "meta_mean_motion_ddot": 0,
        "tle_line1": "1 28190U 04009A   25356.08311618 -.00000024  00000+0  00000+0 0  9997",
        "tle_line2": "2 28190  54.9772 282.8425 0108491 167.7907 330.6754  2.00560473159399"
      },
      "geometry": {
        "type": "Point",
        "coordinates": [
          94.81977160934089,
          11.174913442136528
        ]
      }
    },
    {
      "type": "Feature",
      "properties": {
        "norad_id": 28474,
        "name": "GPS BIIR-13 (PRN 02)",
        "group": "gps-ops",
        "lat": -35.40997268726095,
        "lon": -178.47299739694657,
        "alt_km": 20137.065301568222,
        "timestamp": "2025-12-23T14:49:09.649004+00:00",
        "meta_object_name": "GPS BIIR-13 (PRN 02)",
        "meta_object_id": "2004-045A",
        "meta_epoch": "2025-12-21T13:21:16.085088",
        "meta_mean_motion": 2.00569985,
        "meta_eccentricity": 0.0170919,
        "meta_inclination": 55.2363,
        "meta_ra_of_asc_node": 332.0513,
        "meta_arg_of_pericenter": 309.6441,
        "meta_mean_anomaly": 228.908,
        "meta_ephemeris_type": 0,
        "meta_classification_type": "U",
        "meta_norad_cat_id": 28474,
        "meta_element_set_no": 999,
        "meta_rev_at_epoch": 15486,
        "meta_bstar": 0,
        "meta_mean_motion_dot": -7.1e-07,
        "meta_mean_motion_ddot": 0,
        "tle_line1": "1 28474U 04045A   25355.55643617 -.00000071  00000+0  00000+0 0  9992",
        "tle_line2": "2 28474  55.2363 332.0513 0170919 309.6441 228.9080  2.00569985154869"
      },
      "geometry": {
        "type": "Point",
        "coordinates": [
          -178.47299739694657,
          -35.40997268726095
        ]
      }
    },
    {
      "type": "Feature",
      "properties": {
        "norad_id": 28874,
        "name": "GPS BIIRM-1 (PRN 17)",
        "group": "gps-ops",
        "lat": -3.7660779759474283,
        "lon": 102.89301612835662,
        "alt_km": 20293.157429317966,
        "timestamp": "2025-12-23T14:49:09.649018+00:00",
        "meta_object_name": "GPS BIIRM-1 (PRN 17)",
        "meta_object_id": "2005-038A",
        "meta_epoch": "2025-12-23T02:44:01.154400",
        "meta_mean_motion": 2.00577746,
        "meta_eccentricity": 0.01313202,
        "meta_inclination": 55.0227,
        "meta_ra_of_asc_node": 280.2833,
        "meta_arg_of_pericenter": 293.7944,
        "meta_mean_anomaly": 248.5863,
        "meta_ephemeris_type": 0,
        "meta_classification_type": "U",
        "meta_norad_cat_id": 28874,
        "meta_element_set_no": 999,
        "meta_rev_at_epoch": 14830,
        "meta_bstar": 0,
        "meta_mean_motion_dot": -2e-07,
        "meta_mean_motion_ddot": 0,
        "tle_line1": "1 28874U 05038A   25357.11390225 -.00000020  00000+0  00000+0 0  9991",
        "tle_line2": "2 28874  55.0227 280.2833 0131320 293.7944 248.5863  2.00577746148306"
      },
      "geometry": {
        "type": "Point",
        "coordinates": [
          102.89301612835662,
          -3.7660779759474283
        ]
      }
    }
  ]
}